NORAD_CAT_ID,OBJECT_NAME,OBJECT_TYPE,EPOCH,MEAN_MOTION,ECCENTRICITY,INCLINATION,RA_OF_ASC_NODE,ARG_OF_PERICENTER,MEAN_ANOMALY,BSTAR,MEAN_MOTION_DOT,MEAN_MOTION_DDOT,TLE_LINE0,TLE_LINE1,TLE_LINE2,SEMIMAJOR_AXIS,PERIOD,APOGEE,PERIGEE,DECAYED
54807.0,STARLINK-5410,PAYLOAD,2023-03-30 16:08:07,15.08851403,0.0001352,53.2181,174.689,101.5674,258.547,8.1384e-06,-1.58e-06,0.0,0 STARLINK-5410,1 54807U 22175BB  23089.67231226 -.00000158  00000-0  81384-5 0  9996,2 54807  53.2181 174.6890 0001352 101.5674 258.5470 15.08851403 15682,6917.846,95.437,540.646,538.775,0.0
54807.0,STARLINK-5410,PAYLOAD,2023-03-31 11:12:46,15.08840977,0.0001687,53.2177,171.1176,80.8577,279.2605,-2.6931e-05,-7.17e-06,0.0,0 STARLINK-5410,1 54807U 22175BB  23090.46720122 -.00000717  00000-0 -26931-4 0  9991,2 54807  53.2177 171.1176 0001687  80.8577 279.2605 15.08840977 15806,6917.877,95.437,540.909,538.575,0.0
54807.0,STARLINK-5410,PAYLOAD,2023-03-31 17:34:16,15.08860208,0.0001389,53.2178,169.9301,109.8168,250.2974,0.00012724,1.739e-05,0.0,0 STARLINK-5410,1 54807U 22175BB  23090.73214076  .00001739  00000-0  12724-3 0  9994,2 54807  53.2178 169.9301 0001389 109.8168 250.2974 15.08860208 15840,6917.819,95.436,540.645,538.723,0.0
54807.0,STARLINK-5410,PAYLOAD,2023-04-01 12:38:58,15.08815667,0.0001454,53.2179,166.3631,86.2064,273.9095,-0.0002411,-4.12e-05,0.0,0 STARLINK-5410,1 54807U 22175BB  23091.52706997 -.00004120  00000-0 -24110-3 0  9991,2 54807  53.2179 166.3631 0001454  86.2064 273.9095 15.08815667 15962,6917.955,95.439,540.826,538.814,0.0
54807.0,STARLINK-5410,PAYLOAD,2023-04-01 14:14:22,15.0881607,0.0001549,53.2183,166.0638,84.4175,275.6994,-0.00022122,-3.805e-05,0.0,0 STARLINK-5410,1 54807U 22175BB  23091.59331041 -.00003805  00000-0 -22122-3 0  9992,2 54807  53.2183 166.0638 0001549  84.4175 275.6994 15.08816070 18137,6917.954,95.439,540.89,538.747,0.0
54807.0,STARLINK-5410,PAYLOAD,2023-04-01 22:11:16,15.08832755,6.5e-06,53.2181,164.5795,187.7697,172.3294,-9.0594e-05,-1.728e-05,0.0,0 STARLINK-5410,1 54807U 22175BB  23091.92449238 -.00001728  00000-0 -90594-4 0  9998,2 54807  53.2181 164.5795 0000065 187.7697 172.3294 15.08832755 18189,6917.903,95.438,539.813,539.723,0.0
54807.0,STARLINK-5410,PAYLOAD,2023-04-02 10:54:20,15.0885569,0.0001568,53.2174,162.1989,90.9797,269.1374,-2.4503e-05,-6.78e-06,0.0,0 STARLINK-5410,1 54807U 22175BB  23092.45440442 -.00000678  00000-0 -24503-4 0  9995,2 54807  53.2174 162.1989 0001568  90.9797 269.1374 15.08855690 16102,6917.832,95.437,540.782,538.613,0.0
54807.0,STARLINK-5410,PAYLOAD,2023-04-02 14:05:06,15.08859995,0.0001743,53.2186,161.6012,94.006,266.1132,2.3103e-05,8e-07,0.0,0 STARLINK-5410,1 54807U 22175BB  23092.58687879  .00000080  00000-0  23103-4 0  9996,2 54807  53.2186 161.6012 0001743  94.0060 266.1132 15.08859995 18281,6917.819,95.436,540.89,538.478,0.0
54807.0,STARLINK-5410,PAYLOAD,2023-04-02 22:02:02,15.08854094,0.0002029,53.2171,160.1181,67.8869,292.2339,-0.00010378,-1.94e-05,0.0,0 STARLINK-5410,1 54807U 22175BB  23092.91808603 -.00001940  00000-0 -10378-3 0  9990,2 54807  53.2171 160.1181 0002029  67.8869 292.2339 15.08854094 18339,6917.837,95.437,541.106,538.299,0.0
54807.0,STARLINK-5410,PAYLOAD,2023-04-03 10:45:08,15.08828098,0.0001591,53.2186,157.7363,81.1545,278.9627,0.00021372,3.114e-05,0.0,0 STARLINK-5410,1 54807U 22175BB  23093.44801191  .00003114  00000-0  21372-3 0  9993,2 54807  53.2186 157.7363 0001591  81.1545 278.9627 15.08828098 16257,6917.917,95.438,540.882,538.681,0.0
54807.0,STARLINK-5410,PAYLOAD,2023-04-03 13:55:54,15.08830672,0.0001598,53.2182,157.1397,87.7156,272.4019,0.00023037,3.379e-05,0.0,0 STARLINK-5410,1 54807U 22175BB  23093.58048975  .00003379  00000-0  23037-3 0  9994,2 54807  53.2182 157.1397 0001598  87.7156 272.4019 15.08830672 18438,6917.909,95.438,540.879,538.668,0.0
54807.0,STARLINK-5410,PAYLOAD,2023-04-03 15:31:17,15.0883378,0.0001604,53.2177,156.8438,85.2345,274.8831,0.00026214,3.886e-05,0.0,0 STARLINK-5410,1 54807U 22175BB  23093.64672699  .00003886  00000-0  26214-3 0  9990,2 54807  53.2177 156.8438 0001604  85.2345 274.8831 15.08833780 16287,6917.899,95.438,540.874,538.655,0.0
54807.0,STARLINK-5410,PAYLOAD,2023-04-04 09:00:31,15.08845022,0.0001226,53.2167,153.5738,92.7295,267.3837,5.0967e-05,5.23e-06,0.0,0 STARLINK-5410,1 54807U 22175BB  23094.37536467  .00000523  00000-0  50967-4 0  9991,2 54807  53.2167 153.5738 0001226  92.7295 267.3837 15.08845022 18557,6917.865,95.437,540.578,538.882,0.0
54807.0,STARLINK-5410,PAYLOAD,2023-04-04 15:22:03,15.08856856,0.0001819,53.2177,152.3767,109.056,251.0629,6.9689e-06,-1.77e-06,0.0,0 STARLINK-5410,1 54807U 22175BB  23094.64031504 -.00000177  00000-0  69689-5 0  9991,2 54807  53.2177 152.3767 0001819 109.0560 251.0629 15.08856856 16433,6917.829,95.436,540.952,538.436,0.0
54807.0,STARLINK-5410,PAYLOAD,2023-04-05 04:05:10,15.08828987,0.0001513,53.2174,150.0046,91.986,268.1305,-0.00011446,-2.109e-05,0.0,0 STARLINK-5410,1 54807U 22175BB  23095.17025714 -.00002109  00000-0 -11446-3 0  9990,2 54807  53.2174 150.0046 0001513  91.9860 268.1305 15.08828987 16511,6917.914,95.438,540.826,538.732,0.0
54807.0,STARLINK-5410,PAYLOAD,2023-04-05 10:26:42,15.08836832,0.0001462,53.2169,148.8161,91.7162,268.3997,-0.00011362,-2.096e-05,0.0,0 STARLINK-5410,1 54807U 22175BB  23095.43521323 -.00002096  00000-0 -11362-3 0  9998,2 54807  53.2169 148.8161 0001462  91.7162 268.3997 15.08836832 16555,6917.89,95.438,540.766,538.744,0.0
54807.0,STARLINK-5410,PAYLOAD,2023-04-05 19:59:01,15.08838776,0.0001458,53.2175,147.0311,93.315,266.8009,-9.2879e-05,-1.766e-05,0.0,0 STARLINK-5410,1 54807U 22175BB  23095.83265087 -.00001766  00000-0 -92879-4 0  9990,2 54807  53.2175 147.0311 0001458  93.3150 266.8009 15.08838776 18772,6917.884,95.438,540.758,538.741,0.0
54807.0,STARLINK-5410,PAYLOAD,2023-04-06 10:17:28,15.08849568,0.0001369,53.2169,144.3549,90.6289,269.486,-2.5373e-05,-6.92e-06,0.0,0 STARLINK-5410,1 54807U 22175BB  23096.42880176 -.00000692  00000-0 -25373-4 0  9990,2 54807  53.2169 144.3549 0001369  90.6289 269.4860 15.08849568 16708,6917.851,95.437,540.663,538.769,0.0
54807.0,STARLINK-5410,PAYLOAD,2023-04-06 11:52:51,15.08852291,0.0001337,53.217,144.058,83.7852,276.3292,-2.6032e-05,-7.02e-06,0.0,0 STARLINK-5410,1 54807U 22175BB  23096.49503931 -.00000702  00000-0 -26032-4 0  9993,2 54807  53.2170 144.0580 0001337  83.7852 276.3292 15.08852291 18879,6917.843,95.437,540.633,538.783,0.0
54807.0,STARLINK-5410,PAYLOAD,2023-04-07 11:43:39,15.08836342,0.0001319,53.2178,139.6,81.8946,278.2196,7.8815e-05,9.67e-06,0.0,0 STARLINK-5410,1 54807U 22175BB  23097.48864834  .00000967  00000-0  78815-4 0  9992,2 54807  53.2178 139.6000 0001319  81.8946 278.2196 15.08836342 16867,6917.892,95.438,540.669,538.844,0.0
54807.0,STARLINK-5410,PAYLOAD,2023-04-07 13:19:02,15.08839287,0.0001401,53.2177,139.3021,82.9596,277.1555,8.5852e-05,1.079e-05,0.0,0 STARLINK-5410,1 54807U 22175BB  23097.55488633  .00001079  00000-0  85852-4 0  9993,2 54807  53.2177 139.3021 0001401  82.9596 277.1555 15.08839287 19031,6917.883,95.438,540.717,538.778,0.0
54807.0,STARLINK-5410,PAYLOAD,2023-04-08 09:59:03,15.08841033,0.0001382,53.2178,135.4357,86.7555,273.3595,-1.8184e-05,-5.77e-06,0.0,0 STARLINK-5410,1 54807U 22175BB  23098.41600949 -.00000577  00000-0 -18184-4 0  9993,2 54807  53.2178 135.4357 0001382  86.7555 273.3595 15.08841033 19164,6917.877,95.437,540.698,538.786,0.0
54807.0,STARLINK-5410,PAYLOAD,2023-04-08 19:31:22,15.08833568,7.39e-05,53.2175,133.6523,77.1887,282.9188,-3.3403e-05,-8.19e-06,0.0,0 STARLINK-5410,1 54807U 22175BB  23098.81345147 -.00000819  00000-0 -33403-4 0  9993,2 54807  53.2175 133.6523 0000739  77.1887 282.9188 15.08833568 17068,6917.9,95.438,540.276,539.254,0.0
54807.0,STARLINK-5410,PAYLOAD,2023-04-09 09:49:50,15.08839034,0.0001387,53.2179,130.9755,85.5708,274.5442,-6.7796e-06,-3.96e-06,0.0,0 STARLINK-5410,1 54807U 22175BB  23099.40961085 -.00000396  00000-0 -67796-5 0  9997,2 54807  53.2179 130.9755 0001387  85.5708 274.5442 15.08839034 19318,6917.883,95.438,540.708,538.789,0.0
54807.0,STARLINK-5410,PAYLOAD,2023-04-09 19:22:09,15.08839894,0.0001386,53.2177,129.191,85.9631,274.1519,5.8555e-06,-1.95e-06,0.0,0 STARLINK-5410,1 54807U 22175BB  23099.80704947 -.00000195  00000-0  58555-5 0  9992,2 54807  53.2177 129.1910 0001386  85.9631 274.1519 15.08839894 17219,6917.881,95.438,540.705,538.787,0.0
54807.0,STARLINK-5410,PAYLOAD,2023-04-10 12:51:22,15.08845838,0.0001353,53.2174,125.9191,104.0144,256.0999,6.4794e-05,7.44e-06,0.0,0 STARLINK-5410,1 54807U 22175BB  23100.53568188  .00000744  00000-0  64794-4 0  9990,2 54807  53.2174 125.9191 0001353 104.0144 256.0999 15.08845838 19484,6917.863,95.437,540.664,538.792,0.0
54807.0,STARLINK-5410,PAYLOAD,2023-04-10 19:12:56,15.08833207,0.0001265,53.2174,124.7308,87.8135,272.3002,-3.781e-05,-8.89e-06,0.0,0 STARLINK-5410,1 54807U 22175BB  23100.80065355 -.00000889  00000-0 -37810-4 0  9999,2 54807  53.2174 124.7308 0001265  87.8135 272.3002 15.08833207 19529,6917.901,95.438,540.641,538.891,0.0
54807.0,STARLINK-5410,PAYLOAD,2023-04-11 11:06:47,15.08841903,0.0001228,53.2173,121.7569,81.4308,278.6823,1.1027e-05,-1.12e-06,0.0,0 STARLINK-5410,1 54807U 22175BB  23101.46304692 -.00000112  00000-0  11027-4 0  9992,2 54807  53.2173 121.7569 0001228  81.4308 278.6823 15.08841903 17468,6917.875,95.437,540.589,538.89,0.0
54807.0,STARLINK-5410,PAYLOAD,2023-04-11 12:42:10,15.08843436,0.0001226,53.2174,121.4598,80.7517,279.3613,2.2582e-05,7.2e-07,0.0,0 STARLINK-5410,1 54807U 22175BB  23101.52928541  .00000072  00000-0  22582-4 0  9996,2 54807  53.2174 121.4598 0001226  80.7517 279.3613 15.08843436 19639,6917.87,95.437,540.583,538.887,0.0
54807.0,STARLINK-5410,PAYLOAD,2023-04-12 04:36:02,15.08818019,6.74e-05,53.2187,118.4853,87.7868,272.3201,0.00013664,1.886e-05,0.0,0 STARLINK-5410,1 54807U 22175BB  23102.19169698  .00001886  00000-0  13664-3 0  9994,2 54807  53.2187 118.4853 0000674  87.7868 272.3201 15.08818019 17571,6917.948,95.439,540.279,539.346,0.0
